[{"OBJECT_NAME":"STARLINK-34120","OBJECT_ID":"2025-095J","EPOCH":"2026-03-09T18:11:37.524480","MEAN_MOTION":15.27671911,"ECCENTRICITY":0.00017161,"INCLINATION":43.0014,"RA_OF_ASC_NODE":175.368,"ARG_OF_PERICENTER":266.8554,"MEAN_ANOMALY":93.2101,"EPHEMERIS_TYPE":0,"CLASSIFICATION_TYPE":"U","NORAD_CAT_ID":63898,"ELEMENT_SET_NO":999,"REV_AT_EPOCH":4780,"BSTAR":0.0014886739,"MEAN_MOTION_DOT":0.00041047,"MEAN_MOTION_DDOT":0},{"OBJECT_NAME":"CZ-6A R\/B","OBJECT_ID":"2023-168B","EPOCH":"2026-03-09T21:13:08.722272","MEAN_MOTION":15.16100791,"ECCENTRICITY":0.00607667,"INCLINATION":97.7542,"RA_OF_ASC_NODE":104.7688,"ARG_OF_PERICENTER":339.2379,"MEAN_ANOMALY":20.6386,"EPHEMERIS_TYPE":0,"CLASSIFICATION_TYPE":"U","NORAD_CAT_ID":58200,"ELEMENT_SET_NO":999,"REV_AT_EPOCH":12979,"BSTAR":0.00029693841,"MEAN_MOTION_DOT":5.919e-5,"MEAN_MOTION_DDOT":0}]
